SatCatId,ObjectName,LaunchYear,OrbitalPeriod,LaunchMass,StatusCode,Inclination,Status,UcsData,OrbitClassEstimated,LaunchSiteCountry,Owner,UseType,Purpose,LaunchVehicleClass,TLE1,TLE2,MeanMotion,Eccentricity,OrbitClass
51715,STARLINK-3533,2022,95.44,260.0,+,53.22,Active,1,LEO,USA,USA,Commercial,Communications,Falcon,1 51715U 22016B   24131.57320437  .00001775  00000+0  12960-3 0  9992,2 51715  53.2177  88.4197 0001341  83.0814 277.0330 15.08839790123699,15.0883979,0.0001341,LEO
51716,STARLINK-3543,2022,95.44,260.0,+,53.22,Active,1,LEO,USA,USA,Commercial,Communications,Falcon,1 51716U 22016C   24131.57960524  .00001506  00000+0  11269-3 0  9993,2 51716  53.2194  88.3861 0001884 104.7183 255.4018 15.08840288122560,15.08840288,0.0001884,LEO
51717,STARLINK-3445,2022,95.44,260.0,+,53.22,Active,1,LEO,USA,USA,Commercial,Communications,Falcon,1 51717U 22016D   24131.58424788  .00002548  00000+0  17811-3 0  9998,2 51717  53.2201  88.4533 0001218 100.6502 259.4628 15.08845504122565,15.08845504,0.0001218,LEO
51718,STARLINK-3546,2022,95.44,260.0,+,53.22,Active,1,LEO,USA,USA,Commercial,Communications,Falcon,1 51718U 22016E   24131.16376453  .00000688  00000+0  61351-4 0  9990,2 51718  53.2175  90.2470 0001476  91.5606 268.5555 15.08834567123621,15.08834567,0.0001476,LEO
51719,STARLINK-3540,2022,95.44,260.0,+,53.22,Active,1,LEO,USA,USA,Commercial,Communications,Falcon,1 51719U 22016F   24131.57593095  .00002644  00000+0  18416-3 0  9996,2 51719  53.2173  88.4748 0001379  97.7015 262.4134 15.08843476122568,15.08843476,0.0001379,LEO
51720,STARLINK-3526,2022,95.44,260.0,+,53.22,Active,1,LEO,USA,USA,Commercial,Communications,Falcon,1 51720U 22016G   24131.15737453  .00007134  00000+0  46594-3 0  9997,2 51720  53.2154  90.2488 0001444  78.8290 281.2864 15.08835951122499,15.08835951,0.0001444,LEO
51721,STARLINK-3524,2022,95.44,260.0,+,53.22,Active,1,LEO,USA,USA,Commercial,Communications,Falcon,1 51721U 22016H   24131.30088200 -.00000698  00000+0 -25743-4 0  9998,2 51721  53.2156  89.6431 0001281  73.5145 286.5988 15.08843771122520,15.08843771,0.0001281,LEO
51722,STARLINK-3535,2022,95.44,260.0,+,53.22,Active,1,LEO,USA,USA,Commercial,Communications,Falcon,1 51722U 22016J   24131.28519648  .00002796  00000+0  19364-3 0  9991,2 51722  53.2171  89.7013 0001481  99.2621 260.8539 15.08849508122511,15.08849508,0.0001481,LEO
51723,STARLINK-3531,2022,90.86,260.0,P,53.14,Active,1,LEO,USA,USA,Commercial,Communications,Falcon,1 51723U 22016K   24131.58334491 -.00148124  00000+0 -63315-3 0  9999,2 51723  53.1391  60.9657 0000766 130.4630 146.6540 15.84738329  5978,15.84738329,7.66e-05,LEO
51724,STARLINK-3529,2022,95.44,260.0,+,53.22,Active,1,LEO,USA,USA,Commercial,Communications,Falcon,1 51724U 22016L   24131.60904559  .00008922  00000+0  57777-3 0  9995,2 51724  53.2154  88.2511 0001344  80.2587 279.8557 15.08850869122567,15.08850869,0.0001344,LEO
51725,STARLINK-3522,2022,95.44,260.0,+,53.22,Active,1,LEO,USA,USA,Commercial,Communications,Falcon,1 51725U 22016M   24131.28887749  .00002745  00000+0  19046-3 0  9995,2 51725  53.2174  89.6842 0001383 102.2492 257.8655 15.08847631122518,15.08847631,0.0001383,LEO
51726,STARLINK-3527,2022,95.44,260.0,+,53.22,Active,1,LEO,USA,USA,Commercial,Communications,Falcon,1 51726U 22016N   24131.58422516 -.00000793  00000+0 -31769-4 0  9996,2 51726  53.2204  78.3627 0001487  98.5256 261.5905 15.08827805122701,15.08827805,0.0001487,LEO
51727,STARLINK-3532,2022,95.44,260.0,+,53.22,Active,1,LEO,USA,USA,Commercial,Communications,Falcon,1 51727U 22016P   24131.14904616  .00002064  00000+0  14775-3 0  9993,2 51727  53.2173  90.3124 0001379  89.9460 270.1691 15.08836497122495,15.08836497,0.0001379,LEO
51728,STARLINK-3448,2022,95.44,260.0,+,53.22,Active,1,LEO,USA,USA,Commercial,Communications,Falcon,1 51728U 22016Q   24131.57683987  .00016211  00000+0  10338-2 0  9995,2 51728  53.2175  78.3985 0001430  83.3352 276.7803 15.08856923122702,15.08856923,0.000143,LEO
51729,STARLINK-3523,2022,95.44,260.0,+,53.22,Active,1,LEO,USA,USA,Commercial,Communications,Falcon,1 51729U 22016R   24131.58787770  .00004476  00000+0  29902-3 0  9990,2 51729  53.2184  78.3449 0001507  87.2220 272.8944 15.08855178122704,15.08855178,0.0001507,LEO
51730,STARLINK-3530,2022,95.44,260.0,+,53.22,Active,1,LEO,USA,USA,Commercial,Communications,Falcon,1 51730U 22016S   24131.56948293 -.00001157  00000+0 -54578-4 0  9992,2 51730  53.2186  78.4295 0001519  94.0681 266.0484 15.08851423122701,15.08851423,0.0001519,LEO
51731,STARLINK-3514,2022,95.44,260.0,+,53.22,Active,1,LEO,USA,USA,Commercial,Communications,Falcon,1 51731U 22016T   24131.58051795  .00012120  00000+0  77782-3 0  9998,2 51731  53.2176  78.3809 0001445  83.2925 276.8231 15.08861824122705,15.08861824,0.0001445,LEO
51732,STARLINK-3518,2022,95.44,260.0,+,53.22,Active,1,LEO,USA,USA,Commercial,Communications,Falcon,1 51732U 22016U   24131.56581007  .00000325  00000+0  38539-4 0  9993,2 51732  53.2189  78.4442 0001445  91.0159 269.0999 15.08835520123845,15.0883552,0.0001445,LEO
51733,STARLINK-3525,2022,95.44,260.0,+,53.22,Active,1,LEO,USA,USA,Commercial,Communications,Falcon,1 51733U 22016V   24131.57412023  .00002907  00000+0  20066-3 0  9999,2 51733  53.2163  78.4159 0001323  88.3468 271.7675 15.08845426122701,15.08845426,0.0001323,LEO
51734,STARLINK-3450,2022,95.44,260.0,+,53.22,Active,1,LEO,USA,USA,Commercial,Communications,Falcon,1 51734U 22016W   24131.55476759  .00001246  00000+0  96369-4 0  9999,2 51734  53.2191  78.4957 0001401  96.2048 263.9104 15.08841002122692,15.08841002,0.0001401,LEO
51735,STARLINK-3517,2022,95.44,260.0,+,53.22,Active,1,LEO,USA,USA,Commercial,Communications,Falcon,1 51735U 22016X   24131.56212293  .00003049  00000+0  20953-3 0  9990,2 51735  53.2187  78.4640 0001476  96.6329 263.4831 15.08846166122705,15.08846166,0.0001476,LEO
51736,STARLINK-3447,2022,95.44,260.0,+,53.22,Active,1,LEO,USA,USA,Commercial,Communications,Falcon,1 51736U 22016Y   24131.55572157  .00002108  00000+0  15043-3 0  9997,2 51736  53.2178  78.5745 0001156  73.3658 286.7461 15.08847699123828,15.08847699,0.0001156,LEO
51737,STARLINK-3509,2022,95.44,260.0,+,53.22,Active,1,LEO,USA,USA,Commercial,Communications,Falcon,1 51737U 22016Z   24131.55843555  .00005068  00000+0  33610-3 0  9999,2 51737  53.2192  78.4787 0001215  93.3289 266.7842 15.08858957123750,15.08858957,0.0001215,LEO
51738,STARLINK-3515,2022,95.44,260.0,+,53.22,Active,1,LEO,USA,USA,Commercial,Communications,Falcon,1 51738U 22016AA  24131.27508125  .00002483  00000+0  17402-3 0  9999,2 51738  53.2178  79.7443 0001368  87.7933 272.3216 15.08845193122654,15.08845193,0.0001368,LEO
51739,STARLINK-3516,2022,95.44,260.0,+,53.22,Active,1,LEO,USA,USA,Commercial,Communications,Falcon,1 51739U 22016AB  24131.55107748  .00005543  00000+0  36597-3 0  9993,2 51739  53.2188  78.5122 0001487 101.0477 259.0682 15.08853986123819,15.08853986,0.0001487,LEO
51740,STARLINK-3500,2022,95.44,260.0,+,53.22,Active,1,LEO,USA,USA,Commercial,Communications,Falcon,1 51740U 22016AC  24131.13524097 -.00000642  00000+0 -22251-4 0  9999,2 51740  53.2195  80.3734 0001506  96.4145 263.7018 15.08844248122635,15.08844248,0.0001506,LEO
51741,STARLINK-3520,2022,95.44,260.0,+,53.22,Active,1,LEO,USA,USA,Commercial,Communications,Falcon,1 51741U 22016AD  24131.54467908  .00000951  00000+0  77847-4 0  9994,2 51741  53.2177  78.5477 0001207  95.0957 265.0173 15.08841970122695,15.0884197,0.0001207,LEO
51742,STARLINK-3521,2022,95.44,260.0,+,53.22,Active,1,LEO,USA,USA,Commercial,Communications,Falcon,1 51742U 22016AE  24131.54742014  .00007611  00000+0  49549-3 0  9996,2 51742  53.2176  78.7190 0001199  92.6105 267.5025 15.08858538122698,15.08858538,0.0001199,LEO
51743,STARLINK-3512,2022,95.44,260.0,+,53.22,Active,1,LEO,USA,USA,Commercial,Communications,Falcon,1 51743U 22016AF  24131.54831580  .00001229  00000+0  95314-4 0  9995,2 51743  53.2171  68.4450 0001280  96.4098 263.7039 15.08842480122831,15.0884248,0.000128,LEO
51744,STARLINK-3452,2022,95.44,260.0,+,53.22,Active,1,LEO,USA,USA,Commercial,Communications,Falcon,1 51744U 22016AG  24131.59154797  .00007114  00000+0  46427-3 0  9998,2 51744  53.2173  78.3565 0001300  89.7182 270.3959 15.08868908122707,15.08868908,0.00013,LEO
51745,STARLINK-3449,2022,95.44,260.0,+,53.22,Active,1,LEO,USA,USA,Commercial,Communications,Falcon,1 51745U 22016AH  24131.27139520  .00002059  00000+0  14739-3 0  9995,2 51745  53.2181  79.7600 0001444  99.8562 260.2593 15.08846502122657,15.08846502,0.0001444,LEO
51746,STARLINK-3502,2022,95.44,260.0,+,53.22,Active,1,LEO,USA,USA,Commercial,Communications,Falcon,1 51746U 22016AJ  24131.55293670  .00007499  00000+0  48826-3 0  9991,2 51746  53.2178  68.5138 0001371  80.5527 279.5620 15.08876462122835,15.08876462,0.0001371,LEO
51747,STARLINK-3446,2022,95.44,260.0,+,53.22,Active,1,LEO,USA,USA,Commercial,Communications,Falcon,1 51747U 22016AK  24131.13250853  .00012384  00000+0  79404-3 0  9997,2 51747  53.2173  80.4367 0001132  96.5659 263.5462 15.08876142122636,15.08876142,0.0001132,LEO
51748,STARLINK-3501,2022,95.44,260.0,+,53.22,Active,1,LEO,USA,USA,Commercial,Communications,Falcon,1 51748U 22016AL  24131.54464376  .00005439  00000+0  35945-3 0  9995,2 51748  53.2178  68.5406 0001441  93.3000 266.8157 15.08850636122830,15.08850636,0.0001441,LEO
51749,STARLINK-3451,2022,95.44,260.0,+,53.22,Active,1,LEO,USA,USA,Commercial,Communications,Falcon,1 51749U 22016AM  24131.57318272  .00001212  00000+0  94231-4 0  9991,2 51749  53.2211  78.5977 0001767  89.0976 271.0219 15.08846103122693,15.08846103,0.0001767,LEO
51750,STARLINK-3505,2022,95.44,260.0,+,53.22,Active,1,LEO,USA,USA,Commercial,Communications,Falcon,1 51750U 22016AN  24131.20703708  .00015167  00000+0  96849-3 0  9995,2 51750  53.2173  70.0640 0001318  83.0909 277.0233 15.08858251122787,15.08858251,0.0001318,LEO
